{
  "norad_id": 47719,
  "name": "ARKTIKA-M 1",
  "history": [
    {
      "epoch": "2026-03-27T05:55:38.244288Z",
      "apogee_km": 39440.92947077028,
      "perigee_km": 914.1624143234312,
      "latitude_deg": 0.0001191896311289211,
      "longitude_deg": 155.72233514027863,
      "height_km": 6277.976126844168,
      "semi_major_axis_km": 26555.682942546853,
      "eccentricity": 0.7253959,
      "inclination_deg": 63.2179,
      "raan_deg": 69.3783,
      "arg_perigee_deg": 269.5617,
      "mean_anomaly_deg": 15.0995,
      "mean_motion_rev_day": 2.00616454
    }
  ]
}