ARKTIKA-M 1             
1 47719U 21016A   26086.24697042 -.00000098  00000+0  00000+0 0  9990
2 47719  63.2179  69.3783 7253959 269.5617  15.0995  2.00616454 37142
